PROBA-1                 
1 26958U 01049B   26160.63601220  .00003031  00000+0  19757-3 0  9997
2 26958  97.9600 168.9050 0055608 147.2231 213.2466 15.07464810342487
CUTE-1 (CO-55)          
1 27844U 03031E   26160.52062595  .00000275  00000+0  13789-3 0  9995
2 27844  98.6735 169.1759 0009021 200.7824 159.2990 14.24331052190581
CUBESAT XI-IV (CO-57)   
1 27848U 03031J   26160.01325554  .00000222  00000+0  11652-3 0  9999
2 27848  98.6766 168.3941 0008561 222.5153 137.5363 14.23616414190218
APRIZESAT 4             
1 35684U 09041D   26160.09779993  .00000574  00000+0  75109-4 0  9999
2 35684  98.1412 235.2570 0042967 349.6861  10.3466 14.83868357910162
APRIZESAT 3             
1 35686U 09041F   26160.40828185  .00001156  00000+0  10431-3 0  9997
2 35686  98.2052 313.2604 0062787  92.7241 268.1167 14.96218059915214
PROBA-2                 
1 36037U 09059B   26160.46882934  .00000179  00000+0  52340-4 0  9995
2 36037  98.2450 343.9288 0012210 308.3568  51.6532 14.54859132880409
APRIZESAT 5             
1 37792U 11044E   26160.37304587  .00001041  00000+0  13856-3 0  9991
2 37792  98.2453  93.1921 0052955  29.2546 331.1613 14.81058712797637
APRIZESAT 6             
1 37793U 11044F   26160.57031341  .00000682  00000+0  10329-3 0  9991
2 37793  98.2371  70.9143 0044382 109.6703  12.5372 14.76904696796028
PROBA-V                 
1 39159U 13021A   26160.52839712  .00000074  00000+0  50332-4 0  9993
2 39159  98.3581 139.5133 0004808 141.7591 218.3931 14.23595384680023
APRIZESAT 7             
1 39416U 13066A   26160.43910321  .00000925  00000+0  96999-4 0  9998
2 39416  97.7706 113.7706 0034487 235.7075 124.0877 14.91547790680078
APRIZESAT 8             
1 39425U 13066K   26160.40638287  .00000963  00000+0  11020-3 0  9996
2 39425  97.8218 107.9831 0044792 312.9384  46.8078 14.87637346678514
BUGSAT-1 (TITA)         
1 40014U 14033E   26160.57547074  .00004625  00000+0  24598-3 0  9991
2 40014  98.0419 252.6796 0027450 204.3489 155.6447 15.15503551654689
SAUDISAT 4              
1 40016U 14033G   26160.40905224  .00000673  00000+0  95158-4 0  9990
2 40016  97.7574 306.8134 0046229  98.5110 262.1345 14.79533907644920
APRIZESAT 9             
1 40018U 14033J   26160.33415850  .00000594  00000+0  94845-4 0  9999
2 40018  97.9050 293.7252 0065171 224.6876 134.9071 14.74203919642401
APRIZESAT 10            
1 40019U 14033K   26160.30350137  .00000368  00000+0  65867-4 0  9994
2 40019  97.9640 287.4392 0077584 299.4562  59.8920 14.70875579641090
TECHDEMOSAT-1 (TDS-1)   
1 40076U 14037H   26160.48808407  .00006663  00000+0  37976-3 0  9991
2 40076  98.3811 151.9384 0004604 302.1140  57.9641 15.13179931647060
TECHNOSAT               
1 42829U 17042E   26160.40344424  .00002660  00000+0  19145-3 0  9995
2 42829  97.4264 318.3590 0018830 118.8363 241.4757 15.04906105485534
FLYING LAPTOP           
1 42831U 17042G   26160.58642477  .00003771  00000+0  29804-3 0  9993
2 42831  97.4658 316.4141 0019191 146.5534 213.6907 15.01097072485319
HAWK-A                  
1 43765U 18099H   26160.40652345  .00005585  00000+0  22628-3 0  9991
2 43765  97.3918 212.7439 0033462 314.6143  45.2365 15.24550832411918
HAWK-B                  
1 43794U 18099AN  26160.09024326  .00005257  00000+0  22543-3 0  9992
2 43794  97.3968 211.8640 0031129 334.5859  25.3845 15.22735797411805
HAWK-C                  
1 43799U 18099AT  26160.13868052  .00006596  00000+0  23893-3 0  9990
2 43799  97.3894 213.3527 0039145 315.4758  44.3338 15.27990692412688
SALSAT                  
1 46495U 20068K   26160.49232390  .00007245  00000+0  25454-3 0  9991
2 46495  97.8855 163.0891 0008742 339.5990  20.4898 15.29688082314186
HAWK-2C                 
1 47502U 21006CT  26160.39284935  .00005727  00000+0  17327-3 0  9998
2 47502  97.2284 204.8586 0005799 215.0429 145.0433 15.34568725298306
HAWK-2A                 
1 47505U 21006CW  26160.39541840  .00005697  00000+0  17230-3 0  9991
2 47505  97.2326 205.5344 0005245 218.8969 141.1897 15.34583648298304
HAWK-2B                 
1 47508U 21006CZ  26160.39136970  .00006707  00000+0  20192-3 0  9992
2 47508  97.2197 203.8747 0005786 216.9207 143.1639 15.34659980298304
HAWK-3B                 
1 48931U 21059BE  26160.54472880  .00043979  00000+0  38281-3 0  9991
2 48931  97.6676 356.5337 0003657   6.1887 353.9418 15.68918017276656
HAWK-3C                 
1 48948U 21059BX  26160.54441088  .00040643  00000+0  35414-3 0  9995
2 48948  97.6796   2.2060 0004275   7.2683 352.8639 15.68905662276653
HAWK-3A                 
1 48957U 21059CG  26160.54431236  .00043179  00000+0  37598-3 0  9991
2 48957  97.6737 359.4174 0004245   8.6618 351.4715 15.68910535276656
HAWK-5C                 
1 52754U 22057Y   26160.36790889  .00017512  00000+0  30177-3 0  9990
2 52754  97.6589 319.5336 0005379 105.7988 254.3857 15.51113964225134
HAWK-5B                 
1 52756U 22057AA  26160.36776130  .00017438  00000+0  30046-3 0  9997
2 52756  97.6595 317.8820 0006019  98.8852 261.3081 15.51114361225135
